ONEWEB-0262             
1 48980U 21060P   26045.07635223  .00000067  00000+0  14197-3 0  9990
2 48980  87.8998 253.2716 0001711 100.9609 259.1715 13.16594667223422
ONEWEB-0263             
1 48981U 21060Q   26045.10800909  .00000049  00000+0  94842-4 0  9996
2 48981  87.9000 253.2773 0001359 104.6255 255.5027 13.16595009223390
ONEWEB-0264             
1 48982U 21060R   26045.06922552  .00000054  00000+0  10706-3 0  9993
2 48982  87.8998 253.2889 0001289  88.5950 271.5329 13.16595108223391
ONEWEB-0266             
1 48984U 21060T   26045.09060138  .00000128  00000+0  30152-3 0  9990
2 48984  87.9000 253.2732 0001735  94.5769 265.5560 13.16594954223383
ONEWEB-0267             
1 48985U 21060U   26045.10167562  .00000020  00000+0  19785-4 0  9993
2 48985  87.8998 253.2687 0001368  93.8714 266.2573 13.16595333223397
ONEWEB-0268             
1 48986U 21060V   26045.07001679  .00000011  00000+0 -45875-5 0  9997
2 48986  87.8999 253.2842 0001540  90.7246 269.4062 13.16594040223651
ONEWEB-0269             
1 48987U 21060W   26045.12700661 -.00000020  00000+0 -85702-4 0  9994
2 48987  87.8990 253.2890 0001626  81.5442 278.5874 13.16595319223435
ONEWEB-0270             
1 48988U 21060X   26045.06843638  .00000012  00000+0 -20121-5 0  9995
2 48988  87.8999 253.2861 0001560 106.6230 253.5072 13.16594337223469
ONEWEB-0271             
1 48989U 21060Y   26045.05578211  .00000092  00000+0  20723-3 0  9990
2 48989  87.9000 253.2791 0001352  98.9046 261.2238 13.16592853223464
ONEWEB-0272             
1 48990U 21060Z   26045.07793672  .00000106  00000+0  24404-3 0  9990
2 48990  87.8997 253.2869 0001336  90.2245 269.9039 13.16593779223411
ONEWEB-0273             
1 48991U 21060AA  26045.02410282  .00000175  00000+0  42302-3 0  9992
2 48991  87.9000 253.2956 0001485  96.1988 263.9313 13.16594786223383
ONEWEB-0274             
1 48992U 21060AB  26045.12542998  .00000140  00000+0  33280-3 0  9991
2 48992  87.8991 253.2907 0001298  82.6765 277.4513 13.16595666223439
ONEWEB-0275             
1 48993U 21060AC  26045.11434624 -.00000086  00000+0 -25928-3 0  9998
2 48993  87.8997 253.2706 0001483  92.6352 267.4949 13.16594974223367
ONEWEB-0276             
1 48994U 21060AD  26045.07160407  .00000049  00000+0  94744-4 0  9999
2 48994  87.8997 253.2784 0001652  96.8652 263.2667 13.16594824223377
ONEWEB-0277             
1 48995U 21060AE  26045.00825569  .00000133  00000+0  31555-3 0  9994
2 48995  87.8987 253.3091 0001509  96.4792 263.6511 13.16596540223358
ONEWEB-0278             
1 48996U 21060AF  26045.07476597  .00000026  00000+0  33854-4 0  9991
2 48996  87.8998 253.2744 0001818  90.9417 269.1922 13.16594744223497
ONEWEB-0279             
1 48997U 21060AG  26045.08267746 -.00000026  00000+0 -10066-3 0  9998
2 48997  87.8998 253.2722 0001345  97.3469 262.7815 13.16594961223421
