[{"OBJECT_NAME":"ONEWEB-0262","OBJECT_ID":"2021-060P","EPOCH":"2026-02-14T01:49:56.832672","MEAN_MOTION":13.16594667,"ECCENTRICITY":0.00017116,"INCLINATION":87.8998,"RA_OF_ASC_NODE":253.2716,"ARG_OF_PERICENTER":100.9609,"MEAN_ANOMALY":259.1715,"EPHEMERIS_TYPE":0,"CLASSIFICATION_TYPE":"U","NORAD_CAT_ID":48980,"ELEMENT_SET_NO":999,"REV_AT_EPOCH":22342,"BSTAR":0.00014197476,"MEAN_MOTION_DOT":6.7e-7,"MEAN_MOTION_DDOT":0},{"OBJECT_NAME":"ONEWEB-0263","OBJECT_ID":"2021-060Q","EPOCH":"2026-02-14T02:35:31.985376","MEAN_MOTION":13.16595009,"ECCENTRICITY":0.00013592,"INCLINATION":87.9,"RA_OF_ASC_NODE":253.2773,"ARG_OF_PERICENTER":104.6255,"MEAN_ANOMALY":255.5027,"EPHEMERIS_TYPE":0,"CLASSIFICATION_TYPE":"U","NORAD_CAT_ID":48981,"ELEMENT_SET_NO":999,"REV_AT_EPOCH":22339,"BSTAR":9.4842147e-5,"MEAN_MOTION_DOT":4.9e-7,"MEAN_MOTION_DDOT":0},{"OBJECT_NAME":"ONEWEB-0264","OBJECT_ID":"2021-060R","EPOCH":"2026-02-14T01:39:41.084928","MEAN_MOTION":13.16595108,"ECCENTRICITY":0.0001289,"INCLINATION":87.8998,"RA_OF_ASC_NODE":253.2889,"ARG_OF_PERICENTER":88.595,"MEAN_ANOMALY":271.5329,"EPHEMERIS_TYPE":0,"CLASSIFICATION_TYPE":"U","NORAD_CAT_ID":48982,"ELEMENT_SET_NO":999,"REV_AT_EPOCH":22339,"BSTAR":0.00010705846,"MEAN_MOTION_DOT":5.4e-7,"MEAN_MOTION_DDOT":0},{"OBJECT_NAME":"ONEWEB-0266","OBJECT_ID":"2021-060T","EPOCH":"2026-02-14T02:10:27.959232","MEAN_MOTION":13.16594954,"ECCENTRICITY":0.0001735,"INCLINATION":87.9,"RA_OF_ASC_NODE":253.2732,"ARG_OF_PERICENTER":94.5769,"MEAN_ANOMALY":265.556,"EPHEMERIS_TYPE":0,"CLASSIFICATION_TYPE":"U","NORAD_CAT_ID":48984,"ELEMENT_SET_NO":999,"REV_AT_EPOCH":22338,"BSTAR":0.000301521,"MEAN_MOTION_DOT":1.28e-6,"MEAN_MOTION_DDOT":0},{"OBJECT_NAME":"ONEWEB-0267","OBJECT_ID":"2021-060U","EPOCH":"2026-02-14T02:26:24.773568","MEAN_MOTION":13.16595333,"ECCENTRICITY":0.00013683,"INCLINATION":87.8998,"RA_OF_ASC_NODE":253.2687,"ARG_OF_PERICENTER":93.8714,"MEAN_ANOMALY":266.2573,"EPHEMERIS_TYPE":0,"CLASSIFICATION_TYPE":"U","NORAD_CAT_ID":48985,"ELEMENT_SET_NO":999,"REV_AT_EPOCH":22339,"BSTAR":1.9785385e-5,"MEAN_MOTION_DOT":2.0e-7,"MEAN_MOTION_DDOT":0},{"OBJECT_NAME":"ONEWEB-0268","OBJECT_ID":"2021-060V","EPOCH":"2026-02-14T01:40:49.450656","MEAN_MOTION":13.1659404,"ECCENTRICITY":0.00015404,"INCLINATION":87.8999,"RA_OF_ASC_NODE":253.2842,"ARG_OF_PERICENTER":90.7246,"MEAN_ANOMALY":269.4062,"EPHEMERIS_TYPE":0,"CLASSIFICATION_TYPE":"U","NORAD_CAT_ID":48986,"ELEMENT_SET_NO":999,"REV_AT_EPOCH":22365,"BSTAR":-4.587486e-6,"MEAN_MOTION_DOT":1.1e-7,"MEAN_MOTION_DDOT":0},{"OBJECT_NAME":"ONEWEB-0269","OBJECT_ID":"2021-060W","EPOCH":"2026-02-14T03:02:53.371104","MEAN_MOTION":13.16595319,"ECCENTRICITY":0.00016269,"INCLINATION":87.899,"RA_OF_ASC_NODE":253.289,"ARG_OF_PERICENTER":81.5442,"MEAN_ANOMALY":278.5874,"EPHEMERIS_TYPE":0,"CLASSIFICATION_TYPE":"U","NORAD_CAT_ID":48987,"ELEMENT_SET_NO":999,"REV_AT_EPOCH":22343,"BSTAR":-8.5702226e-5,"MEAN_MOTION_DOT":-2.0e-7,"MEAN_MOTION_DDOT":0},{"OBJECT_NAME":"ONEWEB-0270","OBJECT_ID":"2021-060X","EPOCH":"2026-02-14T01:38:32.903232","MEAN_MOTION":13.16594337,"ECCENTRICITY":0.00015606,"INCLINATION":87.8999,"RA_OF_ASC_NODE":253.2861,"ARG_OF_PERICENTER":106.623,"MEAN_ANOMALY":253.5072,"EPHEMERIS_TYPE":0,"CLASSIFICATION_TYPE":"U","NORAD_CAT_ID":48988,"ELEMENT_SET_NO":999,"REV_AT_EPOCH":22346,"BSTAR":-2.012103e-6,"MEAN_MOTION_DOT":1.2e-7,"MEAN_MOTION_DDOT":0},{"OBJECT_NAME":"ONEWEB-0271","OBJECT_ID":"2021-060Y","EPOCH":"2026-02-14T01:20:19.574304","MEAN_MOTION":13.16592853,"ECCENTRICITY":0.00013526,"INCLINATION":87.9,"RA_OF_ASC_NODE":253.2791,"ARG_OF_PERICENTER":98.9046,"MEAN_ANOMALY":261.2238,"EPHEMERIS_TYPE":0,"CLASSIFICATION_TYPE":"U","NORAD_CAT_ID":48989,"ELEMENT_SET_NO":999,"REV_AT_EPOCH":22346,"BSTAR":0.00020723189,"MEAN_MOTION_DOT":9.2e-7,"MEAN_MOTION_DDOT":0},{"OBJECT_NAME":"ONEWEB-0272","OBJECT_ID":"2021-060Z","EPOCH":"2026-02-14T01:52:13.732608","MEAN_MOTION":13.16593779,"ECCENTRICITY":0.00013362,"INCLINATION":87.8997,"RA_OF_ASC_NODE":253.2869,"ARG_OF_PERICENTER":90.2245,"MEAN_ANOMALY":269.9039,"EPHEMERIS_TYPE":0,"CLASSIFICATION_TYPE":"U","NORAD_CAT_ID":48990,"ELEMENT_SET_NO":999,"REV_AT_EPOCH":22341,"BSTAR":0.0002440375,"MEAN_MOTION_DOT":1.06e-6,"MEAN_MOTION_DDOT":0},{"OBJECT_NAME":"ONEWEB-0273","OBJECT_ID":"2021-060AA","EPOCH":"2026-02-14T00:34:42.483648","MEAN_MOTION":13.16594786,"ECCENTRICITY":0.00014859,"INCLINATION":87.9,"RA_OF_ASC_NODE":253.2956,"ARG_OF_PERICENTER":96.1988,"MEAN_ANOMALY":263.9313,"EPHEMERIS_TYPE":0,"CLASSIFICATION_TYPE":"U","NORAD_CAT_ID":48991,"ELEMENT_SET_NO":999,"REV_AT_EPOCH":22338,"BSTAR":0.0004230154,"MEAN_MOTION_DOT":1.75e-6,"MEAN_MOTION_DDOT":0},{"OBJECT_NAME":"ONEWEB-0274","OBJECT_ID":"2021-060AB","EPOCH":"2026-02-14T03:00:37.150272","MEAN_MOTION":13.16595666,"ECCENTRICITY":0.0001298,"INCLINATION":87.8991,"RA_OF_ASC_NODE":253.2907,"ARG_OF_PERICENTER":82.6765,"MEAN_ANOMALY":277.4513,"EPHEMERIS_TYPE":0,"CLASSIFICATION_TYPE":"U","NORAD_CAT_ID":48992,"ELEMENT_SET_NO":999,"REV_AT_EPOCH":22343,"BSTAR":0.00033279899,"MEAN_MOTION_DOT":1.4e-6,"MEAN_MOTION_DDOT":0},{"OBJECT_NAME":"ONEWEB-0275","OBJECT_ID":"2021-060AC","EPOCH":"2026-02-14T02:44:39.515136","MEAN_MOTION":13.16594974,"ECCENTRICITY":0.00014838,"INCLINATION":87.8997,"RA_OF_ASC_NODE":253.2706,"ARG_OF_PERICENTER":92.6352,"MEAN_ANOMALY":267.4949,"EPHEMERIS_TYPE":0,"CLASSIFICATION_TYPE":"U","NORAD_CAT_ID":48993,"ELEMENT_SET_NO":999,"REV_AT_EPOCH":22336,"BSTAR":-0.00025928397,"MEAN_MOTION_DOT":-8.6e-7,"MEAN_MOTION_DDOT":0},{"OBJECT_NAME":"ONEWEB-0276","OBJECT_ID":"2021-060AD","EPOCH":"2026-02-14T01:43:06.591648","MEAN_MOTION":13.16594824,"ECCENTRICITY":0.00016522,"INCLINATION":87.8997,"RA_OF_ASC_NODE":253.2784,"ARG_OF_PERICENTER":96.8652,"MEAN_ANOMALY":263.2667,"EPHEMERIS_TYPE":0,"CLASSIFICATION_TYPE":"U","NORAD_CAT_ID":48994,"ELEMENT_SET_NO":999,"REV_AT_EPOCH":22337,"BSTAR":9.4744183e-5,"MEAN_MOTION_DOT":4.9e-7,"MEAN_MOTION_DDOT":0},{"OBJECT_NAME":"ONEWEB-0277","OBJECT_ID":"2021-060AE","EPOCH":"2026-02-14T00:11:53.291616","MEAN_MOTION":13.1659654,"ECCENTRICITY":0.00015094,"INCLINATION":87.8987,"RA_OF_ASC_NODE":253.3091,"ARG_OF_PERICENTER":96.4792,"MEAN_ANOMALY":263.6511,"EPHEMERIS_TYPE":0,"CLASSIFICATION_TYPE":"U","NORAD_CAT_ID":48995,"ELEMENT_SET_NO":999,"REV_AT_EPOCH":22335,"BSTAR":0.000315548,"MEAN_MOTION_DOT":1.33e-6,"MEAN_MOTION_DDOT":0},{"OBJECT_NAME":"ONEWEB-0278","OBJECT_ID":"2021-060AF","EPOCH":"2026-02-14T01:47:39.779808","MEAN_MOTION":13.16594744,"ECCENTRICITY":0.00018189,"INCLINATION":87.8998,"RA_OF_ASC_NODE":253.2744,"ARG_OF_PERICENTER":90.9417,"MEAN_ANOMALY":269.1922,"EPHEMERIS_TYPE":0,"CLASSIFICATION_TYPE":"U","NORAD_CAT_ID":48996,"ELEMENT_SET_NO":999,"REV_AT_EPOCH":22349,"BSTAR":3.3853709e-5,"MEAN_MOTION_DOT":2.6e-7,"MEAN_MOTION_DDOT":0},{"OBJECT_NAME":"ONEWEB-0279","OBJECT_ID":"2021-060AG","EPOCH":"2026-02-14T01:59:03.332544","MEAN_MOTION":13.16594961,"ECCENTRICITY":0.00013459,"INCLINATION":87.8998,"RA_OF_ASC_NODE":253.2722,"ARG_OF_PERICENTER":97.3469,"MEAN_ANOMALY":262.7815,"EPHEMERIS_TYPE":0,"CLASSIFICATION_TYPE":"U","NORAD_CAT_ID":48997,"ELEMENT_SET_NO":999,"REV_AT_EPOCH":22342,"BSTAR":-0.00010065793,"MEAN_MOTION_DOT":-2.6e-7,"MEAN_MOTION_DDOT":0}]
